{
    "CCSDS_OMM_VERS": "3.0",
    "COMMENT": "GENERATED VIA SPACE-TRACK.ORG API",
    "CREATION_DATE": "2025-11-23T22:56:29",
    "ORIGINATOR": "18 SPCS",
    "OBJECT_NAME": "GALILEO 20 (2C6)",
    "OBJECT_ID": "2017-079B",
    "CENTER_NAME": "EARTH",
    "REF_FRAME": "TEME",
    "TIME_SYSTEM": "UTC",
    "MEAN_ELEMENT_THEORY": "SGP4",
    "EPOCH": "2025-11-23T10:00:05.438304",
    "MEAN_MOTION": "1.70473857",
    "ECCENTRICITY": "0.00026610",
    "INCLINATION": "55.1374",
    "RA_OF_ASC_NODE": "227.1701",
    "ARG_OF_PERICENTER": "315.3406",
    "MEAN_ANOMALY": "44.7212",
    "EPHEMERIS_TYPE": "0",
    "CLASSIFICATION_TYPE": "U",
    "NORAD_CAT_ID": "43056",
    "ELEMENT_SET_NO": "999",
    "REV_AT_EPOCH": "4949",
    "BSTAR": "0.00000000000000",
    "MEAN_MOTION_DOT": "0.00000029",
    "MEAN_MOTION_DDOT": "0.0000000000000",
    "SEMIMAJOR_AXIS": "29600.337",
    "PERIOD": "844.704",
    "APOAPSIS": "23230.078",
    "PERIAPSIS": "23214.325",
    "OBJECT_TYPE": "PAYLOAD",
    "RCS_SIZE": "LARGE",
    "COUNTRY_CODE": "ESA",
    "LAUNCH_DATE": "2017-12-12",
    "SITE": "FRGUI",
    "DECAY_DATE": null,
    "FILE": "4896306",
    "GP_ID": "303351205",
    "TLE_LINE0": "0 GALILEO 20 (2C6)",
    "TLE_LINE1": "1 43056U 17079B   25327.41672961  .00000029  00000-0  00000+0 0  9997",
    "TLE_LINE2": "2 43056  55.1374 227.1701 0002661 315.3406  44.7212  1.70473857 49490"
}